OBJECT_NAME,OBJECT_ID,EPOCH,MEAN_MOTION,ECCENTRICITY,INCLINATION,RA_OF_ASC_NODE,ARG_OF_PERICENTER,MEAN_ANOMALY,EPHEMERIS_TYPE,CLASSIFICATION_TYPE,NORAD_CAT_ID,ELEMENT_SET_NO,REV_AT_EPOCH,BSTAR,MEAN_MOTION_DOT,MEAN_MOTION_DDOT
H-2A R/B,2006-002B,2026-06-18T23:11:07.196064,15.18079151,.00496039,98.2570,325.9555,256.0681,103.5031,0,U,28932,999,10979,.26727161E-3,.5539E-4,0
RESURS-DK 1,2006-021A,2026-06-18T21:16:11.860032,15.13223482,.00068838,69.9330,335.1551,291.0960,68.9470,0,U,29228,999,10283,.9469171E-4,.1578E-4,0
CZ-4B R/B,2006-046C,2026-06-18T20:02:33.237024,15.17793089,.00309664,97.5448,214.4372,276.7122,83.0588,0,U,29507,999,7538,.14105063E-3,.2814E-4,0
CZ-2C R/B,2007-010B,2026-06-18T21:23:52.927584,14.20276460,.00589129,98.4101,278.1591,1.1644,358.9660,0,U,31114,999,99408,.46206479E-4,.59E-6,0
COSMO-SKYMED 1,2007-023A,2026-06-19T00:09:17.142624,14.97107162,.00014335,97.8849,1.8773,97.9826,262.1558,0,U,31598,999,3006,.20059596E-3,.2254E-4,0
COSMOS 2428,2007-029A,2026-06-18T21:55:33.910752,14.12927853,.00071261,70.9369,350.8527,131.7377,228.4355,0,U,31792,999,97839,-.3265842E-4,-.109E-5,0
SL-16 R/B,2007-029B,2026-06-18T19:32:45.823200,14.14855495,.00023598,70.9770,319.8072,262.4913,200.2367,0,U,31793,999,97967,.4444756E-4,.38E-6,0
KORONAS-FOTON,2009-003A,2026-06-18T22:56:25.173888,15.45749985,.00118405,82.4289,170.4146,141.8219,218.3870,0,U,33504,999,96137,.17321058E-3,.8435E-4,0
CZ-2C R/B,2011-030B,2026-06-18T19:07:20.178912,14.81474828,.00529334,97.8655,125.1538,22.8132,36.8168,0,U,37731,999,80506,.13200422E-3,.1004E-4,0
H-2A R/B,2012-025E,2026-06-18T21:30:36.768960,14.95727913,.00435102,98.4833,145.1828,343.6650,16.3163,0,U,38341,999,76334,.17356606E-3,.1899E-4,0
SHIJIAN-16 (SJ-16),2013-057A,2026-06-18T23:34:14.037024,14.92605686,.00167609,74.9726,353.2830,226.5296,133.4499,0,U,39358,999,68661,.13012562E-4,.104E-5,0
SL-4 R/B,2014-021B,2026-06-18T19:31:43.779360,15.41982454,.00911739,51.6039,202.8025,111.8778,249.1933,0,U,39679,999,67186,.16178594E-3,.7671E-4,0
ALOS-2,2014-029A,2026-06-18T23:09:58.260960,14.79473400,.0001661,97.9225,267.1031,91.8463,268.2939,0,U,39766,999,65184,.15095179E-3,.1076E-4,0
YAOGAN-29,2015-069A,2026-06-18T23:59:12.366816,14.83086116,.00025495,98.0021,198.6353,52.3085,307.8360,0,U,41038,999,57089,.1712372E-5,-.4E-6,0
ASTRO-H (HITOMI),2016-012A,2026-06-18T22:48:50.241600,15.10516963,.00098019,30.9998,62.7985,271.2369,88.7146,0,U,41337,999,56755,.11458846E-3,.2033E-4,0
HXMT (HUIYAN),2017-034A,2026-06-18T23:25:38.692992,15.18485241,.00308123,43.0125,173.0793,158.7173,201.4964,0,U,42758,999,49793,.11113706E-3,.2114E-4,0
SAOCOM 1A,2018-076A,2026-06-18T23:00:42.621696,14.82152501,.00016107,97.8879,356.6812,80.2342,279.9053,0,U,43641,999,41636,.13424154E-3,.1016E-4,0
H-2A R/B,2018-084L,2026-06-18T22:35:42.584640,15.45209045,.00233164,98.8568,49.2142,34.6702,325.6057,0,U,43682,999,42139,.33617645E-3,.1602E-3,0
SAOCOM 1B,2020-059A,2026-06-18T23:45:34.559712,14.82146626,.00015829,97.8881,355.8068,82.5730,277.5663,0,U,46265,999,31375,.21675616E-4,.12E-5,0
CSS (TIANHE),2021-035A,2026-06-18T19:58:55.880544,15.60871130,.00073677,41.4697,311.9880,91.6871,268.4812,0,U,48274,999,29342,.20869421E-3,.17666E-3,0
COSMOS 2550,2021-056A,2026-06-17T22:29:15.459936,15.33847751,.00083421,67.1435,97.6381,268.6108,91.4090,0,U,48865,999,27883,.21058896E-3,.6747E-4,0
CZ-2C R/B,2022-058K,2026-06-18T07:54:48.898368,15.61926706,.0032461,50.1842,157.5724,272.7164,87.0094,0,U,52794,999,22582,.35493E-3,.31967E-3,0
CZ-2C R/B,2022-132E,2026-06-18T22:26:49.115616,15.71665114,.00158381,97.2901,177.0372,78.6981,281.6061,0,U,54039,999,20622,.39205166E-3,.50873E-3,0
GSLV R/B,2022-138AN,2026-06-18T22:08:05.591616,14.97263482,.00230406,87.3806,132.4017,137.7802,222.5210,0,U,54149,999,19907,.1726432E-3,.2039E-4,0
XRISM,2023-137A,2026-06-18T18:35:19.205376,15.12478761,.00079368,31.0032,349.3195,339.5471,20.4850,0,U,57800,999,15310,.22353581E-3,.4086E-4,0
ACS3,2024-077B,2026-06-18T18:49:45.835392,13.94157125,.0078734,97.1684,88.2166,62.3549,298.5582,0,U,59588,999,10826,.30373409E-1,.41507E-3,0
CZ-8A R/B,2025-231K,2026-06-18T20:51:00.679968,14.30155295,.01164883,50.0055,32.1619,229.9252,129.1404,0,U,66004,999,3518,.51545592E-4,-.19E-6,0
SZ-21 MODULE,2025-246C,2026-06-18T10:04:01.553088,15.76496050,.0006546,41.4747,299.6525,354.9385,5.1392,0,U,66515,999,3393,.23745E-3,.38742E-3,0
