H-2A R/B                
1 28932U 06002B   26169.96605551  .00005539  00000+0  26727-3 0  9991
2 28932  98.2570 325.9555 0049603 256.0681 103.5031 15.18079151109798
RESURS-DK 1             
1 29228U 06021A   26169.88624838  .00001578  00000+0  94692-4 0  9997
2 29228  69.9330 335.1551 0006883 291.0960  68.9470 15.13223482102839
CZ-4B R/B               
1 29507U 06046C   26169.83510691  .00002814  00000+0  14105-3 0  9994
2 29507  97.5448 214.4372 0030966 276.7122  83.0588 15.17793089 75381
CZ-2C R/B               
1 31114U 07010B   26169.89158481  .00000059  00000+0  46206-4 0  9991
2 31114  98.4101 278.1591 0058912   1.1644 358.9660 14.20276460994088
COSMO-SKYMED 1          
1 31598U 07023A   26170.00644841  .00002254  00000+0  20060-3 0  9994
2 31598  97.8849   1.8773 0001433  97.9826 262.1558 14.97107162 30067
COSMOS 2428             
1 31792U 07029A   26169.91358693 -.00000109  00000+0 -32658-4 0  9997
2 31792  70.9369 350.8527 0007126 131.7377 228.4355 14.12927853978390
SL-16 R/B               
1 31793U 07029B   26169.81441925  .00000038  00000+0  44448-4 0  9997
2 31793  70.9770 319.8072 0002359 262.4913 200.2367 14.14855495979675
KORONAS-FOTON           
1 33504U 09003A   26169.95584692  .00008435  00000+0  17321-3 0  9995
2 33504  82.4289 170.4146 0011840 141.8219 218.3870 15.45749985961375
CZ-2C R/B               
1 37731U 11030B   26169.79676133  .00001004  00000+0  13200-3 0  9995
2 37731  97.8655 125.1538 0052933  22.8132  36.8168 14.81474828805066
H-2A R/B                
1 38341U 12025E   26169.89625890  .00001899  00000+0  17357-3 0  9992
2 38341  98.4833 145.1828 0043510 343.6650  16.3163 14.95727913763346
SHIJIAN-16 (SJ-16)      
1 39358U 13057A   26169.98210691  .00000104  00000+0  13013-4 0  9990
2 39358  74.9726 353.2830 0016760 226.5296 133.4499 14.92605686686618
SL-4 R/B                
1 39679U 14021B   26169.81370115  .00007671  00000+0  16179-3 0  9999
2 39679  51.6039 202.8025 0091173 111.8778 249.1933 15.41982454671865
ALOS-2                  
1 39766U 14029A   26169.96525765  .00001076  00000+0  15095-3 0  9992
2 39766  97.9225 267.1031 0001661  91.8463 268.2939 14.79473400651844
YAOGAN-29               
1 41038U 15069A   26169.99944869 -.00000040  00000+0  17124-5 0  9993
2 41038  98.0021 198.6353 0002549  52.3085 307.8360 14.83086116570890
ASTRO-H (HITOMI)        
1 41337U 16012A   26169.95058150  .00002033  00000+0  11459-3 0  9995
2 41337  30.9998  62.7985 0009801 271.2369  88.7146 15.10516963567552
HXMT (HUIYAN)           
1 42758U 17034A   26169.97614228  .00002114  00000+0  11114-3 0  9992
2 42758  43.0125 173.0793 0030812 158.7173 201.4964 15.18485241497936
SAOCOM 1A               
1 43641U 18076A   26169.95882664  .00001016  00000+0  13424-3 0  9996
2 43641  97.8879 356.6812 0001610  80.2342 279.9053 14.82152501416360
H-2A R/B                
1 43682U 18084L   26169.94146510  .00016020  00000+0  33618-3 0  9990
2 43682  98.8568  49.2142 0023316  34.6702 325.6057 15.45209045421390
SAOCOM 1B               
1 46265U 20059A   26169.98998333  .00000120  00000+0  21676-4 0  9993
2 46265  97.8881 355.8068 0001582  82.5730 277.5663 14.82146626313757
CSS (TIANHE)            
1 48274U 21035A   26169.83259121  .00017666  00000+0  20869-3 0  9994
2 48274  41.4697 311.9880 0007367  91.6871 268.4812 15.60871130293426
COSMOS 2550             
1 48865U 21056A   26168.93698449  .00006747  00000+0  21059-3 0  9993
2 48865  67.1435  97.6381 0008342 268.6108  91.4090 15.33847751278836
CZ-2C R/B               
1 52794U 22058K   26169.32973262  .00031967  00000+0  35493-3 0  9994
2 52794  50.1842 157.5724 0032461 272.7164  87.0094 15.61926706225825
CZ-2C R/B               
1 54039U 22132E   26169.93529069  .00050873  00000+0  39205-3 0  9992
2 54039  97.2901 177.0372 0015838  78.6981 281.6061 15.71665114206225
GSLV R/B                
1 54149U 22138AN  26169.92228694  .00002039  00000+0  17264-3 0  9991
2 54149  87.3806 132.4017 0023040 137.7802 222.5210 14.97263482199078
XRISM                   
1 57800U 23137A   26169.77452784  .00004086  00000+0  22354-3 0  9990
2 57800  31.0032 349.3195 0007936 339.5471  20.4850 15.12478761153103
ACS3                    
1 59588U 24077B   26169.78455828  .00041507  00000+0  30373-1 0  9999
2 59588  97.1684  88.2166 0078734  62.3549 298.5582 13.94157125108265
CZ-8A R/B               
1 66004U 25231K   26169.86875787 -.00000019  00000+0  51546-4 0  9994
2 66004  50.0055  32.1619 0116488 229.9252 129.1404 14.30155295 35187
SZ-21 MODULE            
1 66515U 25246C   26169.41946242  .00038742  00000+0  23745-3 0  9995
2 66515  41.4747 299.6525 0006546 354.9385   5.1392 15.76496050 33939
